OBJECT_NAME,OBJECT_ID,EPOCH,MEAN_MOTION,ECCENTRICITY,INCLINATION,RA_OF_ASC_NODE,ARG_OF_PERICENTER,MEAN_ANOMALY,EPHEMERIS_TYPE,CLASSIFICATION_TYPE,NORAD_CAT_ID,ELEMENT_SET_NO,REV_AT_EPOCH,BSTAR,MEAN_MOTION_DOT,MEAN_MOTION_DDOT
ARSAT 2,2015-054B,2026-03-01T10:20:48.146784,1.00271340,.0002111,0.0323,74.8892,253.4194,265.0969,0,U,40941,999,3822,0,-.243E-5,0
MORELOS 3,2015-056A,2026-03-01T12:16:21.980928,1.00272188,.0002859,3.1065,12.0119,2.6374,215.6326,0,U,40946,999,3820,0,-.59E-6,0
APSTAR-9,2015-059A,2026-03-01T13:16:24.292416,1.00271908,.0002235,0.0487,315.6329,303.5732,241.2438,0,U,40982,999,3804,0,-.284E-5,0
TURKSAT 4B,2015-060A,2026-03-01T10:58:07.070592,1.00269442,.0002356,0.0161,223.3755,109.3620,41.0149,0,U,40984,999,3801,0,.97E-6,0
ZHONGXING-2C,2015-063A,2026-03-01T09:30:37.958688,1.00274703,.0007504,0.0231,201.6278,25.3315,178.2955,0,U,41021,999,3789,0,-.342E-5,0
GSAT-15,2015-065A,2026-03-01T12:17:25.438272,1.00269657,.0000759,0.0966,270.0443,71.3012,95.8011,0,U,41028,999,3771,0,-.276E-5,0
BADR-7 (ARABSAT-6B),2015-065B,2026-03-01T07:25:57.412128,1.00269761,.0003708,0.0329,214.9648,50.0801,31.5259,0,U,41029,999,3768,0,.126E-5,0
LAOSAT 1,2015-067A,2026-03-01T09:37:52.264704,1.00274405,.0002182,0.0410,302.2030,358.2683,131.6655,0,U,41034,999,3777,0,-.361E-5,0
TELSTAR 12V,2015-068A,2026-03-01T10:22:38.662752,1.00271305,.0002632,0.0126,109.9177,231.9111,318.0452,0,U,41036,999,3754,0,-.137E-5,0
ELEKTRO-L 2,2015-074A,2026-03-01T08:57:03.678336,1.00270670,.0003479,6.4225,71.8480,234.1402,332.9412,0,U,41105,999,3742,0,-.133E-5,0
COSMOS 2513,2015-075A,2026-02-28T09:26:29.296896,1.00271387,.00023722,0.0449,105.8732,212.0412,62.1356,0,U,41121,999,3745,0,-.155E-5,0
EXPRESS-AMU1,2015-082A,2026-03-01T08:26:38.539680,1.00268077,.000333,0.0266,141.9223,182.3462,357.6564,0,U,41191,999,3718,0,0,0
GAOFEN-4,2015-083A,2026-03-01T11:14:05.538624,1.00270561,.0003687,0.3713,83.7669,87.5138,262.1855,0,U,41194,999,3744,0,-.353E-5,0
BELINTERSAT-1,2016-001A,2026-03-01T10:58:37.022016,1.00273961,.0001396,0.0582,281.5868,56.7372,37.0930,0,U,41238,999,3715,0,.88E-6,0
IRNSS-1E,2016-003A,2026-02-20T14:47:11.359680,1.00267075,.00183295,32.9803,61.4290,191.6255,230.9097,0,U,41241,999,3691,0,-.285E-5,0
EUTELSAT 9B,2016-005A,2026-03-01T08:50:38.692032,1.00272656,.0004575,0.0405,71.2519,246.6923,342.8503,0,U,41310,999,3703,0,.43E-6,0
SES-9,2016-013A,2026-03-01T09:32:07.814688,1.00271453,.0001379,0.0374,293.5424,95.0708,21.8884,0,U,41380,999,3635,0,-.363E-5,0
EUTELSAT 65 WEST A,2016-014A,2026-03-01T10:25:17.717376,1.00273080,.00023,0.0658,37.0925,293.5071,279.7410,0,U,41382,999,3645,0,-.295E-5,0
IRNSS-1F,2016-015A,2026-03-01T05:45:07.081920,1.00269565,.0019258,5.0765,99.3499,187.7673,350.6178,0,U,41384,999,3658,0,.14E-5,0
BEIDOU-2 IGSO-6,2016-021A,2026-03-01T09:28:53.126976,1.00278678,.0059813,60.0821,39.1080,233.4424,124.5580,0,U,41434,999,3639,0,-.141E-5,0
IRNSS-1G,2016-027A,2026-03-01T11:04:38.776224,1.00270060,.0005208,4.9279,100.0887,313.4936,41.3920,0,U,41469,999,3609,0,-.352E-5,0
JCSAT-2B,2016-028A,2026-03-01T04:37:06.103200,1.00272865,.0001265,0.0151,126.4203,209.2023,46.6144,0,U,41471,999,3604,0,-.184E-5,0
THAICOM 8,2016-031A,2026-03-01T09:23:23.652672,1.00272353,.0004006,0.0631,43.1217,303.6104,31.8268,0,U,41552,999,3563,0,-.14E-5,0
INTELSAT 31 (IS-31),2016-035A,2026-03-01T12:06:32.228352,1.00271522,.0001986,0.0385,252.8821,339.5525,13.4314,0,U,41581,999,3560,0,-.169E-5,0
BEIDOU-2 G7,2016-037A,2026-03-01T11:15:27.907200,1.00268635,.0007327,1.4538,68.1480,341.2540,29.2606,0,U,41586,999,581,0,-.371E-5,0
ABS-2A (MONGOLSAT-1),2016-038A,2026-03-01T09:22:31.236384,1.00270721,.0002059,0.0107,117.9358,167.9835,88.5926,0,U,41588,999,3562,0,-.102E-5,0
EUTELSAT 117 WEST B,2016-038B,2026-03-01T08:38:38.776128,1.00271438,.0000048,0.0094,266.0601,1.8742,263.8885,0,U,41589,999,3558,0,-.3E-6,0
BRISAT,2016-039A,2026-03-01T08:01:24.014208,1.00270128,.0002288,0.0172,153.9848,184.1422,91.8616,0,U,41591,999,3552,0,0,0
ECHOSTAR 18,2016-039B,2026-03-01T10:26:25.109376,1.00270002,.0001698,0.0145,120.5988,210.7773,283.0768,0,U,41592,999,3554,0,-.3E-5,0
MUOS-5,2016-041A,2026-03-01T12:11:36.182688,1.00271356,.0195371,2.4377,299.7766,262.8166,34.5294,0,U,41622,999,3600,0,-.17E-5,0
TIANTONG-1 1,2016-048A,2026-03-01T09:30:08.007264,1.00273601,.0005313,3.6447,42.4004,351.8698,8.8523,0,U,41725,999,3518,0,-.334E-5,0
JCSAT-16,2016-050A,2026-03-01T10:56:38.830272,1.00267037,.0001194,0.0289,140.0471,207.0380,120.2909,0,U,41729,999,3499,0,0,0
