ARSAT 2                 
1 40941U 15054B   26060.43111281 -.00000243  00000+0  00000+0 0  9996
2 40941   0.0323  74.8892 0002111 253.4194 265.0969  1.00271340 38229
MORELOS 3               
1 40946U 15056A   26060.51136552 -.00000059  00000+0  00000+0 0  9995
2 40946   3.1065  12.0119 0002859   2.6374 215.6326  1.00272188 38207
APSTAR-9                
1 40982U 15059A   26060.55305894 -.00000284  00000+0  00000+0 0  9999
2 40982   0.0487 315.6329 0002235 303.5732 241.2438  1.00271908 38045
TURKSAT 4B              
1 40984U 15060A   26060.45702628  .00000097  00000+0  00000+0 0  9999
2 40984   0.0161 223.3755 0002356 109.3620  41.0149  1.00269442 38018
ZHONGXING-2C            
1 41021U 15063A   26060.39627267 -.00000342  00000+0  00000+0 0  9997
2 41021   0.0231 201.6278 0007504  25.3315 178.2955  1.00274703 37895
GSAT-15                 
1 41028U 15065A   26060.51209998 -.00000276  00000+0  00000+0 0  9993
2 41028   0.0966 270.0443 0000759  71.3012  95.8011  1.00269657 37711
BADR-7 (ARABSAT-6B)     
1 41029U 15065B   26060.30969227  .00000126  00000+0  00000+0 0  9992
2 41029   0.0329 214.9648 0003708  50.0801  31.5259  1.00269761 37689
LAOSAT 1                
1 41034U 15067A   26060.40129936 -.00000361  00000+0  00000+0 0  9998
2 41034   0.0410 302.2030 0002182 358.2683 131.6655  1.00274405 37771
TELSTAR 12V             
1 41036U 15068A   26060.43239193 -.00000137  00000+0  00000+0 0  9992
2 41036   0.0126 109.9177 0002632 231.9111 318.0452  1.00271305 37541
ELEKTRO-L 2             
1 41105U 15074A   26060.37295924 -.00000133  00000+0  00000+0 0  9999
2 41105   6.4225  71.8480 0003479 234.1402 332.9412  1.00270670 37422
COSMOS 2513             
1 41121U 15075A   26059.39339464 -.00000155  00000+0  00000+0 0  9990
2 41121   0.0449 105.8732 0002372 212.0412  62.1356  1.00271387 37451
EXPRESS-AMU1            
1 41191U 15082A   26060.35183495  .00000000  00000+0  00000+0 0  9992
2 41191   0.0266 141.9223 0003330 182.3462 357.6564  1.00268077 37185
GAOFEN-4                
1 41194U 15083A   26060.46811966 -.00000353  00000+0  00000+0 0  9991
2 41194   0.3713  83.7669 0003687  87.5138 262.1855  1.00270561 37449
BELINTERSAT-1           
1 41238U 16001A   26060.45737294  .00000088  00000+0  00000+0 0  9995
2 41238   0.0582 281.5868 0001396  56.7372  37.0930  1.00273961 37159
IRNSS-1E                
1 41241U 16003A   26051.61610370 -.00000285  00000+0  00000+0 0  9994
2 41241  32.9803  61.4290 0018329 191.6255 230.9097  1.00267075 36910
EUTELSAT 9B             
1 41310U 16005A   26060.36850338  .00000043  00000+0  00000+0 0  9996
2 41310   0.0405  71.2519 0004575 246.6923 342.8503  1.00272656 37035
SES-9                   
1 41380U 16013A   26060.39731267 -.00000363  00000+0  00000+0 0  9990
2 41380   0.0374 293.5424 0001379  95.0708  21.8884  1.00271453 36351
EUTELSAT 65 WEST A      
1 41382U 16014A   26060.43423284 -.00000295  00000+0  00000+0 0  9999
2 41382   0.0658  37.0925 0002300 293.5071 279.7410  1.00273080 36456
IRNSS-1F                
1 41384U 16015A   26060.23966530  .00000140  00000+0  00000+0 0  9994
2 41384   5.0765  99.3499 0019258 187.7673 350.6178  1.00269565 36588
BEIDOU-2 IGSO-6         
1 41434U 16021A   26060.39505934 -.00000141  00000+0  00000+0 0  9993
2 41434  60.0821  39.1080 0059813 233.4424 124.5580  1.00278678 36399
IRNSS-1G                
1 41469U 16027A   26060.46155991 -.00000352  00000+0  00000+0 0  9993
2 41469   4.9279 100.0887 0005208 313.4936  41.3920  1.00270060 36098
JCSAT-2B                
1 41471U 16028A   26060.19243175 -.00000184  00000+0  00000+0 0  9992
2 41471   0.0151 126.4203 0001265 209.2023  46.6144  1.00272865 36045
THAICOM 8               
1 41552U 16031A   26060.39124598 -.00000140  00000+0  00000+0 0  9997
2 41552   0.0631  43.1217 0004006 303.6104  31.8268  1.00272353 35632
INTELSAT 31 (IS-31)     
1 41581U 16035A   26060.50453968 -.00000169  00000+0  00000+0 0  9993
2 41581   0.0385 252.8821 0001986 339.5525  13.4314  1.00271522 35601
BEIDOU-2 G7             
1 41586U 16037A   26060.46907300 -.00000371  00000+0  00000+0 0  9994
2 41586   1.4538  68.1480 0007327 341.2540  29.2606  1.00268635  5812
ABS-2A (MONGOLSAT-1)    
1 41588U 16038A   26060.39063931 -.00000102  00000+0  00000+0 0  9994
2 41588   0.0107 117.9358 0002059 167.9835  88.5926  1.00270721 35629
EUTELSAT 117 WEST B     
1 41589U 16038B   26060.36017102 -.00000030  00000+0  00000+0 0  9991
2 41589   0.0094 266.0601 0000048   1.8742 263.8885  1.00271438 35584
BRISAT                  
1 41591U 16039A   26060.33430572  .00000000  00000+0  00000+0 0  9998
2 41591   0.0172 153.9848 0002288 184.1422  91.8616  1.00270128 35529
ECHOSTAR 18             
1 41592U 16039B   26060.43501284 -.00000300  00000+0  00000+0 0  9993
2 41592   0.0145 120.5988 0001698 210.7773 283.0768  1.00270002 35540
MUOS-5                  
1 41622U 16041A   26060.50805767 -.00000170  00000+0  00000+0 0  9996
2 41622   2.4377 299.7766 0195371 262.8166  34.5294  1.00271356 36004
TIANTONG-1 1            
1 41725U 16048A   26060.39592601 -.00000334  00000+0  00000+0 0  9996
2 41725   3.6447  42.4004 0005313 351.8698   8.8523  1.00273601 35184
JCSAT-16                
1 41729U 16050A   26060.45600498  .00000000  00000+0  00000+0 0  9993
2 41729   0.0289 140.0471 0001194 207.0380 120.2909  1.00267037 34990
